NORAD_CAT_ID,OBJECT_NAME,OBJECT_TYPE,EPOCH,MEAN_MOTION,ECCENTRICITY,INCLINATION,RA_OF_ASC_NODE,ARG_OF_PERICENTER,MEAN_ANOMALY,BSTAR,MEAN_MOTION_DOT,MEAN_MOTION_DDOT,TLE_LINE0,TLE_LINE1,TLE_LINE2,SEMIMAJOR_AXIS,PERIOD,APOGEE,PERIGEE,DECAYED
54193.0,STARLINK-5263,PAYLOAD,2023-06-09 08:00:14,15.08847373,0.0001005,53.2153,182.8919,82.584,277.5266,-4.5035e-05,-1.005e-05,0.0,0 STARLINK-5263,1 54193U 22141AN  23160.33350123 -.00001005  00000-0 -45035-4 0  9993,2 54193  53.2153 182.8919 0001005  82.5840 277.5266 15.08847373 34372,6917.858,95.437,540.418,539.028,0.0
54193.0,STARLINK-5263,PAYLOAD,2023-06-10 01:29:29,15.08835027,8.57e-05,53.2147,179.6206,75.3002,284.8085,6.6233e-05,7.66e-06,0.0,0 STARLINK-5263,1 54193U 22141AN  23161.06214354  .00000766  00000-0  66233-4 0  9993,2 54193  53.2147 179.6206 0000857  75.3002 284.8085 15.08835027 34713,6917.896,95.438,540.353,539.168,0.0
54193.0,STARLINK-5263,PAYLOAD,2023-06-10 11:01:48,15.08836172,8.66e-05,53.2148,177.8364,72.2911,287.8176,5.363e-05,5.66e-06,0.0,0 STARLINK-5263,1 54193U 22141AN  23161.45958457  .00000566  00000-0  53630-4 0  9990,2 54193  53.2148 177.8364 0000866  72.2911 287.8176 15.08836172 34541,6917.892,95.438,540.356,539.158,0.0
54193.0,STARLINK-5263,PAYLOAD,2023-06-11 07:41:48,15.0883989,8.94e-05,53.2147,173.9707,70.905,289.2039,3.2002e-05,2.22e-06,0.0,0 STARLINK-5263,1 54193U 22141AN  23162.32070408  .00000222  00000-0  32002-4 0  9997,2 54193  53.2147 173.9707 0000894  70.9050 289.2039 15.08839890 34902,6917.881,95.438,540.364,539.127,0.0
54193.0,STARLINK-5263,PAYLOAD,2023-06-11 10:52:35,15.08840072,9e-05,53.2148,173.376,70.333,289.7759,2.9606e-05,1.84e-06,0.0,0 STARLINK-5263,1 54193U 22141AN  23162.45318414  .00000184  00000-0  29606-4 0  9996,2 54193  53.2148 173.3760 0000900  70.3330 289.7759 15.08840072 34693,6917.88,95.438,540.368,539.123,0.0
54193.0,STARLINK-5263,PAYLOAD,2023-06-11 17:14:07,15.08838412,9.04e-05,53.2147,172.1864,69.0167,291.0921,2.6133e-05,1.28e-06,0.0,0 STARLINK-5263,1 54193U 22141AN  23162.71814541  .00000128  00000-0  26133-4 0  9997,2 54193  53.2147 172.1864 0000904  69.0167 291.0921 15.08838412 34738,6917.885,95.438,540.376,539.125,0.0
54193.0,STARLINK-5263,PAYLOAD,2023-06-12 07:32:35,15.08838605,9.28e-05,53.2148,169.51,69.1256,290.9835,4.4834e-05,4.26e-06,0.0,0 STARLINK-5263,1 54193U 22141AN  23163.31430538  .00000426  00000-0  44834-4 0  9993,2 54193  53.2148 169.5100 0000928  69.1256 290.9835 15.08838605 34824,6917.885,95.438,540.392,539.108,0.0
54193.0,STARLINK-5263,PAYLOAD,2023-06-12 17:04:55,15.08836066,9.26e-05,53.2147,167.726,66.9493,293.1596,1.7553e-05,-8e-08,0.0,0 STARLINK-5263,1 54193U 22141AN  23163.71174842 -.00000008  00000-0  17553-4 0  9995,2 54193  53.2147 167.7260 0000926  66.9493 293.1596 15.08836066 35117,6917.892,95.438,540.398,539.117,0.0
54193.0,STARLINK-5263,PAYLOAD,2023-06-13 08:58:46,15.08834505,9.44e-05,53.2147,164.7522,66.9337,293.1754,-1.9292e-06,-3.18e-06,0.0,0 STARLINK-5263,1 54193U 22141AN  23164.37415179 -.00000318  00000-0 -19292-5 0  9997,2 54193  53.2147 164.7522 0000944  66.9337 293.1754 15.08834505 34988,6917.897,95.438,540.415,539.109,0.0
54193.0,STARLINK-5263,PAYLOAD,2023-06-13 23:17:14,15.08838096,9.97e-05,53.2152,162.0763,70.9411,289.1689,3.831e-05,3.22e-06,0.0,0 STARLINK-5263,1 54193U 22141AN  23164.97030943  .00000322  00000-0  38310-4 0  9999,2 54193  53.2152 162.0763 0000997  70.9411 289.1689 15.08838096 35306,6917.886,95.438,540.441,539.061,0.0
54193.0,STARLINK-5263,PAYLOAD,2023-06-14 12:00:19,15.08841266,9.88e-05,53.215,159.6978,73.5039,286.6061,5.4466e-05,5.79e-06,0.0,0 STARLINK-5263,1 54193U 22141AN  23165.50022715  .00000579  00000-0  54466-4 0  9991,2 54193  53.2150 159.6978 0000988  73.5039 286.6061 15.08841266 35151,6917.877,95.437,540.425,539.058,0.0
54193.0,STARLINK-5263,PAYLOAD,2023-06-14 16:46:29,15.08837236,9.98e-05,53.2153,158.8058,73.5209,286.5892,3.852e-05,3.25e-06,0.0,0 STARLINK-5263,1 54193U 22141AN  23165.69895040  .00000325  00000-0  38520-4 0  9992,2 54193  53.2153 158.8058 0000998  73.5209 286.5892 15.08837236 35180,6917.889,95.438,540.444,539.063,0.0
54193.0,STARLINK-5263,PAYLOAD,2023-06-15 07:04:57,15.08838471,0.0001029,53.2154,156.1289,73.6003,286.5102,5.1281e-05,5.28e-06,0.0,0 STARLINK-5263,1 54193U 22141AN  23166.29511035  .00000528  00000-0  51281-4 0  9992,2 54193  53.2154 156.1289 0001029  73.6003 286.5102 15.08838471 35509,6917.885,95.438,540.462,539.038,0.0
54193.0,STARLINK-5263,PAYLOAD,2023-06-15 16:37:16,15.08839613,0.0001041,53.2154,154.3447,72.9981,287.1125,5.0269e-05,5.12e-06,0.0,0 STARLINK-5263,1 54193U 22141AN  23166.69254989  .00000512  00000-0  50269-4 0  9996,2 54193  53.2154 154.3447 0001041  72.9981 287.1125 15.08839613 35338,6917.882,95.438,540.467,539.026,0.0
54193.0,STARLINK-5263,PAYLOAD,2023-06-16 08:31:07,15.08847051,0.0001061,53.2153,151.3707,74.5404,285.5706,7.766e-05,9.49e-06,0.0,0 STARLINK-5263,1 54193U 22141AN  23167.35494330  .00000949  00000-0  77660-4 0  9994,2 54193  53.2153 151.3707 0001061  74.5404 285.5706 15.08847051 35661,6917.859,95.437,540.458,538.99,0.0
54193.0,STARLINK-5263,PAYLOAD,2023-06-16 16:28:03,15.08842872,0.0001065,53.2154,149.8837,74.5129,285.5981,3.6904e-05,3e-06,0.0,0 STARLINK-5263,1 54193U 22141AN  23167.68614597  .00000300  00000-0  36904-4 0  9996,2 54193  53.2154 149.8837 0001065  74.5129 285.5981 15.08842872 35487,6917.872,95.437,540.473,539.0,0.0
54193.0,STARLINK-5263,PAYLOAD,2023-06-16 22:49:35,15.0883685,0.0001083,53.2154,148.6944,74.8943,285.2169,2.4215e-05,9.8e-07,0.0,0 STARLINK-5263,1 54193U 22141AN  23167.95111005  .00000098  00000-0  24215-4 0  9998,2 54193  53.2154 148.6944 0001083  74.8943 285.2169 15.08836850 35754,6917.89,95.438,540.504,539.006,0.0
54193.0,STARLINK-5263,PAYLOAD,2023-06-17 05:11:08,15.08842774,0.0001077,53.2155,147.5048,76.5609,283.5503,6.3947e-05,7.3e-06,0.0,0 STARLINK-5263,1 54193U 22141AN  23168.21606492  .00000730  00000-0  63947-4 0  9995,2 54193  53.2155 147.5048 0001077  76.5609 283.5503 15.08842774 35798,6917.872,95.437,540.482,538.992,0.0
54193.0,STARLINK-5263,PAYLOAD,2023-06-18 08:12:43,15.08792028,0.0001283,53.2159,142.4479,88.7152,271.3987,0.00051141,7.85e-05,0.0,0 STARLINK-5263,1 54193U 22141AN  23169.34216659  .00007850  00000-0  51141-3 0  9994,2 54193  53.2159 142.4479 0001283  88.7152 271.3987 15.08792028 35967,6918.027,95.441,540.78,539.004,0.0
54193.0,STARLINK-5263,PAYLOAD,2023-06-18 22:31:10,15.08835602,0.0001065,53.2157,139.7727,86.6681,273.4433,9.3445e-06,-1.39e-06,0.0,0 STARLINK-5263,1 54193U 22141AN  23169.93831334 -.00000139  00000-0  93445-5 0  9991,2 54193  53.2157 139.7727 0001065  86.6681 273.4433 15.08835602 36058,6917.894,95.438,540.496,539.022,0.0
54193.0,STARLINK-5263,PAYLOAD,2023-06-19 04:52:42,15.08840274,0.000107,53.2156,138.5834,86.1438,273.9677,4.7138e-05,4.62e-06,0.0,0 STARLINK-5263,1 54193U 22141AN  23170.20326969  .00000462  00000-0  47138-4 0  9991,2 54193  53.2156 138.5834 0001070  86.1438 273.9677 15.08840274 35868,6917.88,95.438,540.485,539.004,0.0
54193.0,STARLINK-5263,PAYLOAD,2023-06-19 14:25:01,15.08839292,0.0001012,53.2155,136.8,82.369,277.7417,1.1415e-05,-1.06e-06,0.0,0 STARLINK-5263,1 54193U 22141AN  23170.60071203 -.00000106  00000-0  11415-4 0  9998,2 54193  53.2155 136.8000 0001012  82.3690 277.7417 15.08839292 35926,6917.883,95.438,540.448,539.047,0.0
54193.0,STARLINK-5263,PAYLOAD,2023-06-19 23:57:20,15.08833313,0.0001087,53.2158,135.0162,88.1638,271.9479,4.5467e-05,4.36e-06,0.0,0 STARLINK-5263,1 54193U 22141AN  23170.99815653  .00000436  00000-0  45467-4 0  9994,2 54193  53.2158 135.0162 0001087  88.1638 271.9479 15.08833313 36212,6917.901,95.438,540.518,539.014,0.0
54193.0,STARLINK-5263,PAYLOAD,2023-06-20 04:43:29,15.08838197,0.0001071,53.2157,134.1243,88.5687,271.5428,8.2441e-05,1.024e-05,0.0,0 STARLINK-5263,1 54193U 22141AN  23171.19687292  .00001024  00000-0  82441-4 0  9990,2 54193  53.2157 134.1243 0001071  88.5687 271.5428 15.08838197 36015,6917.886,95.438,540.492,539.01,0.0
54193.0,STARLINK-5263,PAYLOAD,2023-06-20 17:26:36,15.08804768,9.11e-05,53.2156,131.7463,91.2833,268.8263,0.00041664,6.343e-05,0.0,0 STARLINK-5263,1 54193U 22141AN  23171.72680614  .00006343  00000-0  41664-3 0  9990,2 54193  53.2156 131.7463 0000911  91.2833 268.8263 15.08804768 36098,6917.988,95.44,540.483,539.223,0.0
54193.0,STARLINK-5263,PAYLOAD,2023-06-21 02:58:54,15.08835468,0.0001125,53.2157,129.962,92.8155,267.2966,-5.1092e-06,-3.69e-06,0.0,0 STARLINK-5263,1 54193U 22141AN  23172.12423989 -.00000369  00000-0 -51092-5 0  9997,2 54193  53.2157 129.9620 0001125  92.8155 267.2966 15.08835468 36381,6917.894,95.438,540.538,538.981,0.0
54193.0,STARLINK-5263,PAYLOAD,2023-06-21 06:09:40,15.08838964,0.0001125,53.2157,129.3673,92.984,267.1281,2.3337e-05,8.4e-07,0.0,0 STARLINK-5263,1 54193U 22141AN  23172.25671711  .00000084  00000-0  23337-4 0  9991,2 54193  53.2157 129.3673 0001125  92.9840 267.1281 15.08838964 36175,6917.884,95.438,540.527,538.97,0.0
54193.0,STARLINK-5263,PAYLOAD,2023-06-21 14:06:36,15.08836197,0.0001126,53.2158,127.8806,94.039,266.0731,-1.7779e-05,-5.71e-06,0.0,0 STARLINK-5263,1 54193U 22141AN  23172.58792058 -.00000571  00000-0 -17779-4 0  9991,2 54193  53.2158 127.8806 0001126  94.0390 266.0731 15.08836197 36221,6917.892,95.438,540.536,538.978,0.0
54193.0,STARLINK-5263,PAYLOAD,2023-06-22 02:49:40,15.08886708,9.05e-05,53.2158,125.5011,85.9889,274.1207,-0.00062196,-0.00010185,0.0,0 STARLINK-5263,1 54193U 22141AN  23173.11783158 -.00010185  00000-0 -62196-3 0  9996,2 54193  53.2158 125.5011 0000905  85.9889 274.1207 15.08886708 36535,6917.738,95.435,540.229,538.977,0.0
54193.0,STARLINK-5263,PAYLOAD,2023-06-22 06:00:27,15.08838316,0.0001182,53.2158,124.906,89.7592,270.3536,4.1431e-05,3.72e-06,0.0,0 STARLINK-5263,1 54193U 22141AN  23173.25031956  .00000372  00000-0  41431-4 0  9998,2 54193  53.2158 124.9060 0001182  89.7592 270.3536 15.08838316 36550,6917.886,95.438,540.568,538.933,0.0
